[{"OBJECT_NAME":"STARLINK-30083","OBJECT_ID":"2023-056K","EPOCH":"2026-03-09T22:00:01.999584","MEAN_MOTION":15.23112858,"ECCENTRICITY":0.00011245,"INCLINATION":43.0002,"RA_OF_ASC_NODE":182.0509,"ARG_OF_PERICENTER":286.4689,"MEAN_ANOMALY":225.5641,"EPHEMERIS_TYPE":0,"CLASSIFICATION_TYPE":"U","NORAD_CAT_ID":56295,"ELEMENT_SET_NO":999,"REV_AT_EPOCH":578,"BSTAR":0.059898212,"MEAN_MOTION_DOT":0.01587924,"MEAN_MOTION_DDOT":0},{"OBJECT_NAME":"SL-8 R\/B","OBJECT_ID":"1994-061B","EPOCH":"2026-03-09T22:11:39.346944","MEAN_MOTION":14.28263907,"ECCENTRICITY":0.05977746,"INCLINATION":82.9619,"RA_OF_ASC_NODE":21.337,"ARG_OF_PERICENTER":318.8014,"MEAN_ANOMALY":36.9463,"EPHEMERIS_TYPE":0,"CLASSIFICATION_TYPE":"U","NORAD_CAT_ID":23279,"ELEMENT_SET_NO":999,"REV_AT_EPOCH":57143,"BSTAR":0.00083232798,"MEAN_MOTION_DOT":0.00016203,"MEAN_MOTION_DDOT":0}]
